HULIANWANG DIGUI-49     
1 65106U 25168A   26074.26190269 -.00000049  00000+0  16182-3 0  9998
2 65106  50.0033 302.8394 0007496 180.8700 179.2160 13.29340234 30190
HULIANWANG DIGUI-50     
1 65107U 25168B   26074.25349392 -.00000051  00000+0  15679-3 0  9994
2 65107  50.0003 302.7365 0008512 167.2195 192.8895 13.29340822 30191
HULIANWANG DIGUI-51     
1 65108U 25168C   26074.24512672 -.00000046  00000+0  16888-3 0  9994
2 65108  50.0041 302.7653 0009847 167.2500 192.8623 13.29341149 30198
HULIANWANG DIGUI-52     
1 65109U 25168D   26074.31207505 -.00000049  00000+0  16156-3 0  9990
2 65109  50.0034 302.4348 0009702 180.2755 179.8113 13.29339730 30200
HULIANWANG DIGUI-53     
1 65110U 25168E   26074.30372294 -.00000045  00000+0  17021-3 0  9997
2 65110  50.0041 302.4137 0008534 169.9494 190.1551 13.29339637 30200
HULIANWANG DIGUI-54     
1 65111U 25168F   26074.27886144 -.00000040  00000+0  18172-3 0  9991
2 65111  49.9992 302.1900 0010100 175.3404 184.7564 13.29337017 30205
HULIANWANG DIGUI-55     
1 65112U 25168G   26074.22010583 -.00000043  00000+0  17423-3 0  9994
2 65112  49.9998 302.5538 0011393 171.0902 189.0174 13.29340371 30194
HULIANWANG DIGUI-56     
1 65113U 25168H   26074.28695362 -.00000043  00000+0  17336-3 0  9998
2 65113  49.9990 302.2245 0011027 193.1072 166.9515 13.29339806 30202
HULIANWANG DIGUI-57     
1 65114U 25168J   26074.27053630 -.00000048  00000+0  16334-3 0  9996
2 65114  50.0018 302.1961 0008817 183.3863 176.6951 13.29336787 30211
HULIANWANG DIGUI-58     
1 65164U 25174A   26074.28442330  .00000115  00000+0  23273-3 0  9992
2 65164  86.4911 283.7401 0001380  95.6907 264.4384 13.24422043 28361
HULIANWANG DIGUI-59     
1 65165U 25174B   26074.29197247  .00000142  00000+0  29773-3 0  9999
2 65165  86.4872 283.6633 0001353  95.6975 264.4313 13.24422329 28368
HULIANWANG DIGUI-60     
1 65166U 25174C   26074.29949907  .00000128  00000+0  26456-3 0  9997
2 65166  86.4904 283.7333 0001360  97.8060 262.3228 13.24422464 28362
HULIANWANG DIGUI-61     
1 65167U 25174D   26074.30712174  .00000130  00000+0  26837-3 0  9990
2 65167  86.4913 283.7542 0001310  98.1240 262.0043 13.24421065 28362
HULIANWANG DIGUI-62     
1 65168U 25174E   26074.31461958  .00000112  00000+0  22723-3 0  9993
2 65168  86.4854 283.6354 0001346  99.9857 260.1429 13.24422412 28363
HULIANWANG DIGUI-63     
1 65169U 25174F   26074.24660939  .00000098  00000+0  19439-3 0  9999
2 65169  86.4907 283.7729 0001330  97.7775 262.3510 13.24422741 28357
HULIANWANG DIGUI-64     
1 65170U 25174G   26074.25416572  .00000094  00000+0  18477-3 0  9991
2 65170  86.4866 283.6918 0001351  99.8309 260.2977 13.24422763 28359
