[{"OBJECT_NAME":"HULIANWANG DIGUI-49","OBJECT_ID":"2025-168A","EPOCH":"2026-03-15T06:17:08.392416","MEAN_MOTION":13.29340234,"ECCENTRICITY":0.00074961,"INCLINATION":50.0033,"RA_OF_ASC_NODE":302.8394,"ARG_OF_PERICENTER":180.87,"MEAN_ANOMALY":179.216,"EPHEMERIS_TYPE":0,"CLASSIFICATION_TYPE":"U","NORAD_CAT_ID":65106,"ELEMENT_SET_NO":999,"REV_AT_EPOCH":3019,"BSTAR":0.00016181759,"MEAN_MOTION_DOT":-4.9e-7,"MEAN_MOTION_DDOT":0},{"OBJECT_NAME":"HULIANWANG DIGUI-50","OBJECT_ID":"2025-168B","EPOCH":"2026-03-15T06:05:01.874688","MEAN_MOTION":13.29340822,"ECCENTRICITY":0.00085127,"INCLINATION":50.0003,"RA_OF_ASC_NODE":302.7365,"ARG_OF_PERICENTER":167.2195,"MEAN_ANOMALY":192.8895,"EPHEMERIS_TYPE":0,"CLASSIFICATION_TYPE":"U","NORAD_CAT_ID":65107,"ELEMENT_SET_NO":999,"REV_AT_EPOCH":3019,"BSTAR":0.00015678615,"MEAN_MOTION_DOT":-5.1e-7,"MEAN_MOTION_DDOT":0},{"OBJECT_NAME":"HULIANWANG DIGUI-51","OBJECT_ID":"2025-168C","EPOCH":"2026-03-15T05:52:58.948608","MEAN_MOTION":13.29341149,"ECCENTRICITY":0.00098479,"INCLINATION":50.0041,"RA_OF_ASC_NODE":302.7653,"ARG_OF_PERICENTER":167.25,"MEAN_ANOMALY":192.8623,"EPHEMERIS_TYPE":0,"CLASSIFICATION_TYPE":"U","NORAD_CAT_ID":65108,"ELEMENT_SET_NO":999,"REV_AT_EPOCH":3019,"BSTAR":0.00016888047,"MEAN_MOTION_DOT":-4.6e-7,"MEAN_MOTION_DDOT":0},{"OBJECT_NAME":"HULIANWANG DIGUI-52","OBJECT_ID":"2025-168D","EPOCH":"2026-03-15T07:29:23.284320","MEAN_MOTION":13.2933973,"ECCENTRICITY":0.00097027,"INCLINATION":50.0034,"RA_OF_ASC_NODE":302.4348,"ARG_OF_PERICENTER":180.2755,"MEAN_ANOMALY":179.8113,"EPHEMERIS_TYPE":0,"CLASSIFICATION_TYPE":"U","NORAD_CAT_ID":65109,"ELEMENT_SET_NO":999,"REV_AT_EPOCH":3020,"BSTAR":0.00016156163,"MEAN_MOTION_DOT":-4.9e-7,"MEAN_MOTION_DDOT":0},{"OBJECT_NAME":"HULIANWANG DIGUI-53","OBJECT_ID":"2025-168E","EPOCH":"2026-03-15T07:17:21.662016","MEAN_MOTION":13.29339637,"ECCENTRICITY":0.00085348,"INCLINATION":50.0041,"RA_OF_ASC_NODE":302.4137,"ARG_OF_PERICENTER":169.9494,"MEAN_ANOMALY":190.1551,"EPHEMERIS_TYPE":0,"CLASSIFICATION_TYPE":"U","NORAD_CAT_ID":65110,"ELEMENT_SET_NO":999,"REV_AT_EPOCH":3020,"BSTAR":0.00017020681,"MEAN_MOTION_DOT":-4.5e-7,"MEAN_MOTION_DDOT":0},{"OBJECT_NAME":"HULIANWANG DIGUI-54","OBJECT_ID":"2025-168F","EPOCH":"2026-03-15T06:41:33.628416","MEAN_MOTION":13.29337017,"ECCENTRICITY":0.00101002,"INCLINATION":49.9992,"RA_OF_ASC_NODE":302.19,"ARG_OF_PERICENTER":175.3404,"MEAN_ANOMALY":184.7564,"EPHEMERIS_TYPE":0,"CLASSIFICATION_TYPE":"U","NORAD_CAT_ID":65111,"ELEMENT_SET_NO":999,"REV_AT_EPOCH":3020,"BSTAR":0.0001817198,"MEAN_MOTION_DOT":-4.0e-7,"MEAN_MOTION_DDOT":0},{"OBJECT_NAME":"HULIANWANG DIGUI-55","OBJECT_ID":"2025-168G","EPOCH":"2026-03-15T05:16:57.143712","MEAN_MOTION":13.29340371,"ECCENTRICITY":0.00113935,"INCLINATION":49.9998,"RA_OF_ASC_NODE":302.5538,"ARG_OF_PERICENTER":171.0902,"MEAN_ANOMALY":189.0174,"EPHEMERIS_TYPE":0,"CLASSIFICATION_TYPE":"U","NORAD_CAT_ID":65112,"ELEMENT_SET_NO":999,"REV_AT_EPOCH":3019,"BSTAR":0.00017423294,"MEAN_MOTION_DOT":-4.3e-7,"MEAN_MOTION_DDOT":0},{"OBJECT_NAME":"HULIANWANG DIGUI-56","OBJECT_ID":"2025-168H","EPOCH":"2026-03-15T06:53:12.792768","MEAN_MOTION":13.29339806,"ECCENTRICITY":0.00110274,"INCLINATION":49.999,"RA_OF_ASC_NODE":302.2245,"ARG_OF_PERICENTER":193.1072,"MEAN_ANOMALY":166.9515,"EPHEMERIS_TYPE":0,"CLASSIFICATION_TYPE":"U","NORAD_CAT_ID":65113,"ELEMENT_SET_NO":999,"REV_AT_EPOCH":3020,"BSTAR":0.00017335803,"MEAN_MOTION_DOT":-4.3e-7,"MEAN_MOTION_DDOT":0},{"OBJECT_NAME":"HULIANWANG DIGUI-57","OBJECT_ID":"2025-168J","EPOCH":"2026-03-15T06:29:34.336320","MEAN_MOTION":13.29336787,"ECCENTRICITY":0.0008817,"INCLINATION":50.0018,"RA_OF_ASC_NODE":302.1961,"ARG_OF_PERICENTER":183.3863,"MEAN_ANOMALY":176.6951,"EPHEMERIS_TYPE":0,"CLASSIFICATION_TYPE":"U","NORAD_CAT_ID":65114,"ELEMENT_SET_NO":999,"REV_AT_EPOCH":3021,"BSTAR":0.00016333633,"MEAN_MOTION_DOT":-4.8e-7,"MEAN_MOTION_DDOT":0},{"OBJECT_NAME":"HULIANWANG DIGUI-58","OBJECT_ID":"2025-174A","EPOCH":"2026-03-15T06:49:34.173120","MEAN_MOTION":13.24422043,"ECCENTRICITY":0.00013807,"INCLINATION":86.4911,"RA_OF_ASC_NODE":283.7401,"ARG_OF_PERICENTER":95.6907,"MEAN_ANOMALY":264.4384,"EPHEMERIS_TYPE":0,"CLASSIFICATION_TYPE":"U","NORAD_CAT_ID":65164,"ELEMENT_SET_NO":999,"REV_AT_EPOCH":2836,"BSTAR":0.00023273124,"MEAN_MOTION_DOT":1.15e-6,"MEAN_MOTION_DDOT":0},{"OBJECT_NAME":"HULIANWANG DIGUI-59","OBJECT_ID":"2025-174B","EPOCH":"2026-03-15T07:00:26.421408","MEAN_MOTION":13.24422329,"ECCENTRICITY":0.00013536,"INCLINATION":86.4872,"RA_OF_ASC_NODE":283.6633,"ARG_OF_PERICENTER":95.6975,"MEAN_ANOMALY":264.4313,"EPHEMERIS_TYPE":0,"CLASSIFICATION_TYPE":"U","NORAD_CAT_ID":65165,"ELEMENT_SET_NO":999,"REV_AT_EPOCH":2836,"BSTAR":0.00029773405,"MEAN_MOTION_DOT":1.42e-6,"MEAN_MOTION_DDOT":0},{"OBJECT_NAME":"HULIANWANG DIGUI-60","OBJECT_ID":"2025-174C","EPOCH":"2026-03-15T07:11:16.719648","MEAN_MOTION":13.24422464,"ECCENTRICITY":0.00013602,"INCLINATION":86.4904,"RA_OF_ASC_NODE":283.7333,"ARG_OF_PERICENTER":97.806,"MEAN_ANOMALY":262.3228,"EPHEMERIS_TYPE":0,"CLASSIFICATION_TYPE":"U","NORAD_CAT_ID":65166,"ELEMENT_SET_NO":999,"REV_AT_EPOCH":2836,"BSTAR":0.00026456309,"MEAN_MOTION_DOT":1.28e-6,"MEAN_MOTION_DDOT":0},{"OBJECT_NAME":"HULIANWANG DIGUI-61","OBJECT_ID":"2025-174D","EPOCH":"2026-03-15T07:22:15.318336","MEAN_MOTION":13.24421065,"ECCENTRICITY":0.00013105,"INCLINATION":86.4913,"RA_OF_ASC_NODE":283.7542,"ARG_OF_PERICENTER":98.124,"MEAN_ANOMALY":262.0043,"EPHEMERIS_TYPE":0,"CLASSIFICATION_TYPE":"U","NORAD_CAT_ID":65167,"ELEMENT_SET_NO":999,"REV_AT_EPOCH":2836,"BSTAR":0.00026836581,"MEAN_MOTION_DOT":1.3e-6,"MEAN_MOTION_DDOT":0},{"OBJECT_NAME":"HULIANWANG DIGUI-62","OBJECT_ID":"2025-174E","EPOCH":"2026-03-15T07:33:03.131712","MEAN_MOTION":13.24422412,"ECCENTRICITY":0.00013469,"INCLINATION":86.4854,"RA_OF_ASC_NODE":283.6354,"ARG_OF_PERICENTER":99.9857,"MEAN_ANOMALY":260.1429,"EPHEMERIS_TYPE":0,"CLASSIFICATION_TYPE":"U","NORAD_CAT_ID":65168,"ELEMENT_SET_NO":999,"REV_AT_EPOCH":2836,"BSTAR":0.00022722799,"MEAN_MOTION_DOT":1.12e-6,"MEAN_MOTION_DDOT":0},{"OBJECT_NAME":"HULIANWANG DIGUI-63","OBJECT_ID":"2025-174F","EPOCH":"2026-03-15T05:55:07.051296","MEAN_MOTION":13.24422741,"ECCENTRICITY":0.000133,"INCLINATION":86.4907,"RA_OF_ASC_NODE":283.7729,"ARG_OF_PERICENTER":97.7775,"MEAN_ANOMALY":262.351,"EPHEMERIS_TYPE":0,"CLASSIFICATION_TYPE":"U","NORAD_CAT_ID":65169,"ELEMENT_SET_NO":999,"REV_AT_EPOCH":2835,"BSTAR":0.00019438537,"MEAN_MOTION_DOT":9.8e-7,"MEAN_MOTION_DDOT":0},{"OBJECT_NAME":"HULIANWANG DIGUI-64","OBJECT_ID":"2025-174G","EPOCH":"2026-03-15T06:05:59.918208","MEAN_MOTION":13.24422763,"ECCENTRICITY":0.00013515,"INCLINATION":86.4866,"RA_OF_ASC_NODE":283.6918,"ARG_OF_PERICENTER":99.8309,"MEAN_ANOMALY":260.2977,"EPHEMERIS_TYPE":0,"CLASSIFICATION_TYPE":"U","NORAD_CAT_ID":65170,"ELEMENT_SET_NO":999,"REV_AT_EPOCH":2835,"BSTAR":0.00018477183,"MEAN_MOTION_DOT":9.4e-7,"MEAN_MOTION_DDOT":0}]
